satname,norad_id,inclination_deg,eccentricity,mean_motion_rev_per_day,perigee_km,apogee_km,l1,l2
STARLINK-1460,45676,53.1609,0.0001386,15.30211556,474.2306956888706,476.1304353180294,1 45676U 20035V   26080.09444107  .00005360  00000+0  19290-3 0  9990,2 45676  53.1609  11.9739 0001386  97.8464 262.2695 15.30211556320466
STARLINK-1392,45677,53.1568,0.0001727,15.29373786,476.499105888397,478.8671061530167,1 45677U 20035W   26080.09328790  .00003252  00000+0  12492-3 0  9995,2 45677  53.1568  11.8579 0001727  92.9647 267.1551 15.29373786320502
STARLINK-1394,45679,53.0499,0.000362,15.51841101,408.8929373101946,413.8085264280671,1 45679U 20035Y   26080.02293667  .00089407  00000+0  14598-2 0  9998,2 45679  53.0499 342.1045 0003620 169.6906 190.4178 15.51841101320912
STARLINK-1402,45685,53.0478,0.0001889,15.46609317,425.3680885193917,427.93893837537235,1 45685U 20035AE  26079.90447705  .00074783  00000+0  14715-2 0  9996,2 45685  53.0478 329.9151 0001889 224.8202 135.2652 15.46609317321083
STARLINK-1404,45686,53.1601,0.0002015,15.31132426,471.05203666784655,473.8128161466884,1 45686U 20035AF  26079.99251774  .00046588  00000+0  15304-2 0  9992,2 45686  53.1601 357.1708 0002015 111.3052 248.8165 15.31132426320703
STARLINK-1413,45689,53.1612,0.0001569,15.30202626,474.1319389583987,476.2825183773539,1 45689U 20035AJ  26080.45883852  .00005423  00000+0  19507-3 0  9999,2 45689  53.1612 354.9119 0001569  85.7815 274.3365 15.30202626320696
STARLINK-1417,45693,53.0522,0.0001778,15.13228215,525.1351753402787,527.5904154675236,1 45693U 20035AN  26080.09245010  .00025622  00000+0  14371-2 0  9998,2 45693  53.0522   2.5990 0001778 258.2008 101.8785 15.13228215320622
STARLINK-1420,45695,53.0509,0.0004519,15.55824218,396.6948564905506,402.8207177991726,1 45695U 20035AQ  26079.92669729  .00077656  00000+0  10995-2 0  9999,2 45695  53.0509 328.1068 0004519 163.2470 196.8691 15.55824218321101
STARLINK-1422,45696,53.1613,0.0001006,15.30209549,474.4971136248787,475.87600232474233,1 45696U 20035AR  26080.46620081  .00006235  00000+0  22239-3 0  9999,2 45696  53.1613 354.8817 0001006  93.7376 266.3740 15.30209549320774
STARLINK-1351,45697,53.0517,0.0004277,15.54511094,400.6736533625426,406.47472911552813,1 45697U 20035AS  26079.97726111  .00099004  00000+0  14651-2 0  9999,2 45697  53.0517 327.1763 0004277 176.9380 183.1657 15.54511094321122
STARLINK-1398,45699,53.0291,0.0007989,16.08662331,245.2197815975578,255.81104242146648,1 45699U 20035AU  26080.68646125  .01166084  82703-3  13247-2 0  9995,2 45699  53.0291 237.0483 0007989 299.5152  60.5084 16.08662331322442
STARLINK-1400,45700,53.0502,0.0007646,15.52572744,404.0279424169603,414.40716500049075,1 45700U 20035AV  26080.60419105  .00103372  00000+0  16387-2 0  9990,2 45700  53.0502 325.6493 0007646 141.4806 218.6750 15.52572744321199
STARLINK-1403,45701,53.1552,0.0001835,15.29348289,476.5012481115491,479.01736205551424,1 45701U 20035AW  26079.97038049 -.00000992  00000+0 -22027-4 0  9999,2 45701  53.1552 344.1836 0001835  87.1970 272.9241 15.29348289320876
STARLINK-1407,45703,53.0307,0.0008063,15.62636241,374.59634134691623,385.4945863881494,1 45703U 20035AY  26080.47658882  .00111893  00000+0  12150-2 0  9996,2 45703  53.0307 258.2122 0008063 144.5694 215.5857 15.62636241322131
STARLINK-1411,45706,53.042,0.0003917,15.64460875,372.1445989205358,377.43484171323234,1 45706U 20035BB  26080.58421189  .00128866  00000+0  13005-2 0  9997,2 45706  53.0420 283.1997 0003917 188.5741 171.5206 15.64460875321780
STARLINK-1423,45710,53.05,0.0007636,15.54999555,396.976492781705,407.33135307920384,1 45710U 20035BF  26079.97496055  .00090061  00000+0  13103-2 0  9991,2 45710  53.0500 327.5332 0007636 156.7066 203.4292 15.54999555321106
STARLINK-1433,45711,53.0496,0.0007507,15.57064898,391.07139769980404,401.2423225013581,1 45711U 20035BG  26080.56302948  .00058576  00000+0  79506-3 0  9991,2 45711  53.0496 323.5618 0007507 150.4885 209.6551 15.57064898321215
STARLINK-1434,45712,53.0552,0.0005137,15.27757646,478.99289348415004,486.04152962109765,1 45712U 20035BH  26080.41257388  .00015485  00000+0  57493-3 0  9996,2 45712  53.0552 325.6873 0005137 133.1349 227.0079 15.27757646321187
STARLINK-1465,45731,53.0513,0.0004872,15.5189052,407.89882486238184,414.5143612594611,1 45731U 20038B   26080.50135195  .00081834  00000+0  13355-2 0  9990,2 45731  53.0513 166.3995 0004872 336.6567  23.4220 15.51890520318219
STARLINK-1471,45735,53.0459,0.0001308,15.49467896,417.39262818814495,419.1705712938365,1 45735U 20038F   26080.19399094  .00028088  00000+0  50838-3 0  9999,2 45735  53.0459  86.8803 0001308 353.4677   6.6313 15.49467896319317
STARLINK-1480,45741,53.0536,8.81e-05,15.49093118,418.7788834597741,419.97660555775565,1 45741U 20038M   26079.31850691  .00173634  00000+0  30841-2 0  9992,2 45741  53.0536 166.3993 0000881 269.3316  90.7591 15.49093118318126
STARLINK-1500,45744,53.0352,0.0002436,15.35418147,458.01307317829287,461.3444570190477,1 45744U 20038Q   26080.59160770  .00032152  00000+0  92803-3 0  9995,2 45744  53.0352 136.8926 0002436 333.5656  26.5221 15.35418147318644
STARLINK-1504,45746,53.0219,8.78e-05,15.53900546,404.7549005204419,405.9460809238117,1 45746U 20038S   26080.39493293  .00044783  00000+0  68640-3 0  9999,2 45746  53.0219  85.6809 0000878  29.0639 331.0419 15.53900546319334
STARLINK-1506,45747,53.0768,0.0002562,15.26475536,484.59956879039055,488.1169361577586,1 45747U 20038T   26080.51182039  .00009676  00000+0  37868-3 0  9997,2 45747  53.0768 147.6672 0002562 305.0238  55.0520 15.26475536318493
STARLINK-1464,45751,53.0503,0.0003473,15.45110412,428.6888357337439,433.4184995714959,1 45751U 20038X   26080.60157433  .00037210  00000+0  77886-3 0  9991,2 45751  53.0503 147.9229 0003473 332.4205  27.6616 15.45110412318497
STARLINK-1477,45754,53.0513,0.0002296,15.15087902,519.1277343243264,522.2956856519522,1 45754U 20038AA  26080.50956230  .00017905  00000+0  95909-3 0  9990,2 45754  53.0513 159.2072 0002296  26.7343 333.3768 15.15087902318322
STARLINK-1478,45755,53.0493,0.0004115,15.57237115,392.86998216604206,398.4448149560585,1 45755U 20038AB  26080.44970578  .00069200  00000+0  93155-3 0  9991,2 45755  53.0493 140.9248 0004115 325.5924  34.4821 15.57237115318563
STARLINK-1484,45756,52.9867,0.000537,16.37817733,168.09686608453285,175.13129874704737,1 45756U 20038AC  26080.90190902  .06281484  12273-4  59113-3 0  9990,2 45756  52.9867 352.0300 0005370 245.3975 114.6510 16.37817733320671
STARLINK-1493,45759,53.0512,0.000394,15.52197747,407.63603714058354,412.9853339167794,1 45759U 20038AF  26080.56171793  .00055900  00000+0  90774-3 0  9996,2 45759  53.0512 147.4239 0003940  40.1006 320.0293 15.52197747318486
STARLINK-1494,45760,53.0473,0.0006739,15.75988355,337.2915932451451,346.34875152208406,1 45760U 20038AG  26080.30046295  .00125445  00000+0  78334-3 0  9998,2 45760  53.0473  93.7906 0006739  43.4599 316.6950 15.75988355319222
STARLINK-1502,45764,53.0525,0.0005253,15.48932855,416.275633328406,423.41759491340144,1 45764U 20038AL  26080.56494941  .00041982  00000+0  76853-3 0  9992,2 45764  53.0525 149.2223 0005253  30.1178 330.0131 15.48932855318470
STARLINK-1470,45772,53.0455,0.000258,15.28942611,477.20284492061273,480.7411131537965,1 45772U 20038AU  26080.37805685  .00027280  00000+0  96627-3 0  9997,2 45772  53.0455 120.0199 0002580  34.0412 326.0752 15.28942611318860
STARLINK-1482,45773,53.1591,0.0001435,15.30898493,472.14713138590287,474.11344509762785,1 45773U 20038AV  26080.43553020  .00032442  00000+0  10791-2 0  9991,2 45773  53.1591 136.4383 0001435  51.0651 309.0478 15.30898493318644
STARLINK-1496,45780,53.05,0.00021,15.50095532,415.02002659139816,417.8737518248663,1 45780U 20038BC  26080.51165004  .00052914  00000+0  92688-3 0  9991,2 45780  53.0500 121.1585 0002100 290.6758  69.4025 15.50095532318847
STARLINK-1513,45786,53.1581,0.0001223,15.30213507,474.33658022279724,476.0129002744616,1 45786U 20038BJ  26080.44715314  .00006195  00000+0  22102-3 0  9998,2 45786  53.1581 136.5397 0001223  74.6335 285.4801 15.30213507318642
STARLINK-1522,46027,53.0646,0.0002314,15.09561184,535.939608007543,539.140183274847,1 46027U 20055A   26080.26983134  .00020839  00000+0  12976-2 0  9991,2 46027  53.0646  74.2692 0002314  80.5269 279.5983 15.09561184310631
STARLINK-1523,46028,53.1551,0.0001724,15.29327909,476.63824623431265,479.00218028144445,1 46028U 20055B   26080.58334491 -.00003730  00000+0 -11710-3 0  9992,2 46028  53.1551  71.4176 0001724  90.7726 169.9951 15.29327909  5724
STARLINK-1526,46029,53.156,0.0001541,15.29380511,476.6065295926146,478.7194871551965,1 46029U 20055C   26080.58334491 -.00015046  00000+0 -50970-3 0  9997,2 46029  53.1560  71.3822 0001541  88.5524 231.7524 15.29380511  5586
STARLINK-1555,46032,53.1578,0.0003336,15.29487207,475.05717881430155,479.6311558491461,1 46032U 20055F   26080.19135397  .00092510  00000+0  31654-2 0  9998,2 46032  53.1578  73.2728 0003336 144.2243 215.8982 15.29487207310655
STARLINK-1556,46033,53.1568,0.0002,15.29388308,476.2685519005354,479.01086258343275,1 46033U 20055G   26080.29225297  .00013378  00000+0  47462-3 0  9999,2 46033  53.1568  72.6871 0002000  75.9370 284.1853 15.29388308310642
STARLINK-1557,46034,53.1561,0.0002011,15.29370467,476.31431748073555,479.07173231675006,1 46034U 20055H   26080.28601558  .00005456  00000+0  20119-3 0  9995,2 46034  53.1561  72.6177 0002011  82.3052 277.8177 15.29370467310641
STARLINK-1558,46035,53.1581,0.0001321,15.29375431,476.77253674184885,478.5838431150278,1 46035U 20055J   26080.24624660  .00004507  00000+0  16833-3 0  9995,2 46035  53.1581  72.9863 0001321  85.7519 274.3632 15.29375431310663
STARLINK-1560,46036,53.1559,0.0001891,15.29367656,476.40498659342757,478.9978646860045,1 46036U 20055K   26080.41348326  .00004642  00000+0  17303-3 0  9990,2 46036  53.1559  72.0642 0001891  86.4148 273.7069 15.29367656310693
